[
  {"id":"p1","name":"CalmCare Therapy","type":"THERAPIST","city":"Seattle","zip":"98101","address":"123 Pine St","phone":"206-555-0100"},
  {"id":"p2","name":"North Star Pediatrics","type":"DEVELOPMENTAL_PEDIATRICS","city":"Seattle","zip":"98102","address":"201 Lakeview Ave","phone":"206-555-0101"},
  {"id":"p3","name":"Bright Speech Clinic","type":"SLP","city":"San Francisco","zip":"94102","address":"77 Market St","phone":"415-555-0120"},
  {"id":"p4","name":"Gentle Hands OT","type":"OT","city":"San Francisco","zip":"94103","address":"88 Howard St","phone":"415-555-0121"},
  {"id":"p5","name":"Harborview Autism Center","type":"BEHAVIORAL_THERAPY","city":"Seattle","zip":"98104","address":"500 Harbor Ave","phone":"206-555-0102"},
  {"id":"p6","name":"Sunrise ABA","type":"ABA","city":"Portland","zip":"97201","address":"1600 SW Oak","phone":"503-555-0130"},
  {"id":"p7","name":"Cascade Speech & Language","type":"SLP","city":"Portland","zip":"97202","address":"710 SW Main","phone":"503-555-0131"},
  {"id":"p8","name":"Oak Grove Pediatrics","type":"DEVELOPMENTAL_PEDIATRICS","city":"Austin","zip":"78701","address":"900 Congress Ave","phone":"512-555-0140"},
  {"id":"p9","name":"Lakeside OT Clinic","type":"OT","city":"Austin","zip":"78702","address":"901 Riverside Dr","phone":"512-555-0141"},
  {"id":"p10","name":"River City ABA","type":"ABA","city":"Austin","zip":"78703","address":"400 6th St","phone":"512-555-0142"},
  {"id":"p11","name":"South Bay Autism Services","type":"BEHAVIORAL_THERAPY","city":"San Jose","zip":"95112","address":"190 W Hedding","phone":"408-555-0150"},
  {"id":"p12","name":"Central Coast SLP","type":"SLP","city":"San Jose","zip":"95113","address":"350 Santa Clara","phone":"408-555-0151"},
  {"id":"p13","name":"Pine Ridge OT","type":"OT","city":"San Jose","zip":"95110","address":"80 Autumn St","phone":"408-555-0152"},
  {"id":"p14","name":"Skyline Pediatrics","type":"DEVELOPMENTAL_PEDIATRICS","city":"Chicago","zip":"60601","address":"200 N Michigan","phone":"312-555-0160"},
  {"id":"p15","name":"Windy City ABA","type":"ABA","city":"Chicago","zip":"60602","address":"33 W Lake","phone":"312-555-0161"},
  {"id":"p16","name":"Midwest Speech Center","type":"SLP","city":"Chicago","zip":"60603","address":"12 S Dearborn","phone":"312-555-0162"},
  {"id":"p17","name":"Prairie OT Services","type":"OT","city":"Chicago","zip":"60604","address":"500 W Adams","phone":"312-555-0163"},
  {"id":"p18","name":"Evergreen Pediatrics","type":"DEVELOPMENTAL_PEDIATRICS","city":"Denver","zip":"80202","address":"1600 17th St","phone":"303-555-0170"},
  {"id":"p19","name":"Rocky Mountain ABA","type":"ABA","city":"Denver","zip":"80203","address":"900 Pearl St","phone":"303-555-0171"},
  {"id":"p20","name":"High Plains SLP","type":"SLP","city":"Denver","zip":"80204","address":"200 W Colfax","phone":"303-555-0172"},
  {"id":"p21","name":"Front Range OT","type":"OT","city":"Denver","zip":"80205","address":"400 Larimer","phone":"303-555-0173"},
  {"id":"p22","name":"Bayview Pediatrics","type":"DEVELOPMENTAL_PEDIATRICS","city":"Miami","zip":"33101","address":"100 Biscayne","phone":"305-555-0180"},
  {"id":"p23","name":"Sunshine ABA","type":"ABA","city":"Miami","zip":"33102","address":"50 Flagler","phone":"305-555-0181"},
  {"id":"p24","name":"Ocean Speech Clinic","type":"SLP","city":"Miami","zip":"33103","address":"10 Brickell","phone":"305-555-0182"},
  {"id":"p25","name":"Coral OT Center","type":"OT","city":"Miami","zip":"33104","address":"70 Coral Way","phone":"305-555-0183"},
  {"id":"p26","name":"Star City Pediatrics","type":"DEVELOPMENTAL_PEDIATRICS","city":"Houston","zip":"77002","address":"150 Main","phone":"713-555-0190"},
  {"id":"p27","name":"Space City ABA","type":"ABA","city":"Houston","zip":"77003","address":"600 Polk","phone":"713-555-0191"},
  {"id":"p28","name":"Gulf Speech Center","type":"SLP","city":"Houston","zip":"77004","address":"900 Fannin","phone":"713-555-0192"},
  {"id":"p29","name":"Bayou OT Services","type":"OT","city":"Houston","zip":"77005","address":"2200 Kirby","phone":"713-555-0193"},
  {"id":"p30","name":"Longleaf Pediatrics","type":"DEVELOPMENTAL_PEDIATRICS","city":"Atlanta","zip":"30303","address":"50 Peachtree","phone":"404-555-0200"}
]
